[{"OBJECT_NAME":"BEIDOU-3 G3 (PRN 143)","OBJECT_ID":"2020-040A","EPOCH":"2026-03-05T21:22:14.772864","MEAN_MOTION":1.00274924,"ECCENTRICITY":0.0004591,"INCLINATION":2.1933,"RA_OF_ASC_NODE":67.1674,"ARG_OF_PERICENTER":320.4944,"MEAN_ANOMALY":207.0151,"EPHEMERIS_TYPE":0,"CLASSIFICATION_TYPE":"U","NORAD_CAT_ID":45807,"ELEMENT_SET_NO":999,"REV_AT_EPOCH":2103,"BSTAR":0,"MEAN_MOTION_DOT":-3.59e-6,"MEAN_MOTION_DDOT":0},{"OBJECT_NAME":"GALAXY 30 (WAAS/PRN 135)","OBJECT_ID":"2020-056C","EPOCH":"2026-03-05T15:06:50.247936","MEAN_MOTION":1.00271232,"ECCENTRICITY":0.0002069,"INCLINATION":0.0225,"RA_OF_ASC_NODE":160.3254,"ARG_OF_PERICENTER":192.9294,"MEAN_ANOMALY":271.8285,"EPHEMERIS_TYPE":0,"CLASSIFICATION_TYPE":"U","NORAD_CAT_ID":46114,"ELEMENT_SET_NO":999,"REV_AT_EPOCH":2025,"BSTAR":0,"MEAN_MOTION_DOT":0,"MEAN_MOTION_DDOT":0},{"OBJECT_NAME":"QZS-1R (QZSS/PRN 196)","OBJECT_ID":"2021-096A","EPOCH":"2026-03-04T22:35:38.651712","MEAN_MOTION":1.00291077,"ECCENTRICITY":0.07475207,"INCLINATION":37.245,"RA_OF_ASC_NODE":81.1219,"ARG_OF_PERICENTER":269.7237,"MEAN_ANOMALY":284.8903,"EPHEMERIS_TYPE":0,"CLASSIFICATION_TYPE":"U","NORAD_CAT_ID":49336,"ELEMENT_SET_NO":999,"REV_AT_EPOCH":1596,"BSTAR":0,"MEAN_MOTION_DOT":-2.63e-6,"MEAN_MOTION_DDOT":0},{"OBJECT_NAME":"QZS-6 (QZSS/PRN 200)","OBJECT_ID":"2025-023A","EPOCH":"2026-03-05T16:06:51.607296","MEAN_MOTION":1.00269908,"ECCENTRICITY":0.0001848,"INCLINATION":0.0422,"RA_OF_ASC_NODE":311.0712,"ARG_OF_PERICENTER":30.5433,"MEAN_ANOMALY":153.9892,"EPHEMERIS_TYPE":0,"CLASSIFICATION_TYPE":"U","NORAD_CAT_ID":62876,"ELEMENT_SET_NO":999,"REV_AT_EPOCH":392,"BSTAR":0,"MEAN_MOTION_DOT":-2.4e-6,"MEAN_MOTION_DDOT":0}]
