BEIDOU-3 G3             
1 45807U 20040A   26064.89044876 -.00000359  00000+0  00000+0 0  9990
2 45807   2.1933  67.1674 0004591 320.4944 207.0151  1.00274924 21031
GALAXY 30 (G-30)        
1 46114U 20056C   26064.62974824  .00000000  00000+0  00000+0 0  9997
2 46114   0.0225 160.3254 0002069 192.9294 271.8285  1.00271232 20251
QZS-1R (MICHIBIKI-1R)   
1 49336U 21096A   26063.94141958 -.00000263  00000+0  00000+0 0  9991
2 49336  37.2450  81.1219 0747520 269.7237 284.8903  1.00291077 15963
QZS-6 (MICHIBIKI-6)     
1 62876U 25023A   26064.67143064 -.00000240  00000+0  00000+0 0  9995
2 62876   0.0422 311.0712 0001848  30.5433 153.9892  1.00269908  3929
